{
  "type": "FeatureCollection",
  "name": "tn30_districts_stgcn",
  "crs": {
    "type": "name",
    "properties": {
      "name": "EPSG:4326"
    }
  },
  "features": [
    {
      "type": "Feature",
      "properties": {
        "district": "Chennai"
      },
      "geometry": {
        "type": "Polygon",
        "coordinates": [
          [
            [
              80.12333333333333,
              12.9525
            ],
            [
              80.41666666666666,
              12.9525
            ],
            [
              80.41666666666666,
              13.2075
            ],
            [
              80.12333333333333,
              13.2075
            ],
            [
              80.12333333333333,
              12.9525
            ]
          ]
        ]
      }
    },
    {
      "type": "Feature",
      "properties": {
        "district": "Coimbatore"
      },
      "geometry": {
        "type": "Polygon",
        "coordinates": [
          [
            [
              76.8,
              10.87
            ],
            [
              77.11999999999999,
              10.87
            ],
            [
              77.11999999999999,
              11.17
            ],
            [
              76.8,
              11.17
            ],
            [
              76.8,
              10.87
            ]
          ]
        ]
      }
    },
    {
      "type": "Feature",
      "properties": {
        "district": "Madurai"
      },
      "geometry": {
        "type": "Polygon",
        "coordinates": [
          [
            [
              77.98,
              9.795
            ],
            [
              78.26,
              9.795
            ],
            [
              78.26,
              10.065
            ],
            [
              77.98,
              10.065
            ],
            [
              77.98,
              9.795
            ]
          ]
        ]
      }
    },
    {
      "type": "Feature",
      "properties": {
        "district": "Tiruchirappalli"
      },
      "geometry": {
        "type": "Polygon",
        "coordinates": [
          [
            [
              78.53,
              10.647499999999999
            ],
            [
              78.85,
              10.647499999999999
            ],
            [
              78.85,
              10.9325
            ],
            [
              78.53,
              10.9325
            ],
            [
              78.53,
              10.647499999999999
            ]
          ]
        ]
      }
    },
    {
      "type": "Feature",
      "properties": {
        "district": "Salem"
      },
      "geometry": {
        "type": "Polygon",
        "coordinates": [
          [
            [
              77.97,
              11.540000000000001
            ],
            [
              78.33000000000001,
              11.540000000000001
            ],
            [
              78.33000000000001,
              11.78
            ],
            [
              77.97,
              11.78
            ],
            [
              77.97,
              11.540000000000001
            ]
          ]
        ]
      }
    },
    {
      "type": "Feature",
      "properties": {
        "district": "Tiruppur"
      },
      "geometry": {
        "type": "Polygon",
        "coordinates": [
          [
            [
              77.19333333333334,
              10.99
            ],
            [
              77.48666666666666,
              10.99
            ],
            [
              77.48666666666666,
              11.229999999999999
            ],
            [
              77.19333333333334,
              11.229999999999999
            ],
            [
              77.19333333333334,
              10.99
            ]
          ]
        ]
      }
    },
    {
      "type": "Feature",
      "properties": {
        "district": "Erode"
      },
      "geometry": {
        "type": "Polygon",
        "coordinates": [
          [
            [
              77.57000000000001,
              11.19
            ],
            [
              77.89,
              11.19
            ],
            [
              77.89,
              11.49
            ],
            [
              77.57000000000001,
              11.49
            ],
            [
              77.57000000000001,
              11.19
            ]
          ]
        ]
      }
    },
    {
      "type": "Feature",
      "properties": {
        "district": "Tirunelveli"
      },
      "geometry": {
        "type": "Polygon",
        "coordinates": [
          [
            [
              77.56,
              8.5875
            ],
            [
              77.84,
              8.5875
            ],
            [
              77.84,
              8.8725
            ],
            [
              77.56,
              8.8725
            ],
            [
              77.56,
              8.5875
            ]
          ]
        ]
      }
    },
    {
      "type": "Feature",
      "properties": {
        "district": "Thoothukudi"
      },
      "geometry": {
        "type": "Polygon",
        "coordinates": [
          [
            [
              77.94999999999999,
              8.675
            ],
            [
              78.31,
              8.675
            ],
            [
              78.31,
              8.945
            ],
            [
              77.94999999999999,
              8.945
            ],
            [
              77.94999999999999,
              8.675
            ]
          ]
        ]
      }
    },
    {
      "type": "Feature",
      "properties": {
        "district": "Vellore"
      },
      "geometry": {
        "type": "Polygon",
        "coordinates": [
          [
            [
              78.99,
              12.7925
            ],
            [
              79.27,
              12.7925
            ],
            [
              79.27,
              13.0475
            ],
            [
              78.99,
              13.0475
            ],
            [
              78.99,
              12.7925
            ]
          ]
        ]
      }
    },
    {
      "type": "Feature",
      "properties": {
        "district": "Thanjavur"
      },
      "geometry": {
        "type": "Polygon",
        "coordinates": [
          [
            [
              79.0,
              10.6625
            ],
            [
              79.28,
              10.6625
            ],
            [
              79.28,
              10.917499999999999
            ],
            [
              79.0,
              10.917499999999999
            ],
            [
              79.0,
              10.6625
            ]
          ]
        ]
      }
    },
    {
      "type": "Feature",
      "properties": {
        "district": "Dindigul"
      },
      "geometry": {
        "type": "Polygon",
        "coordinates": [
          [
            [
              77.83333333333334,
              10.2325
            ],
            [
              78.12666666666667,
              10.2325
            ],
            [
              78.12666666666667,
              10.487499999999999
            ],
            [
              77.83333333333334,
              10.487499999999999
            ],
            [
              77.83333333333334,
              10.2325
            ]
          ]
        ]
      }
    },
    {
      "type": "Feature",
      "properties": {
        "district": "Cuddalore"
      },
      "geometry": {
        "type": "Polygon",
        "coordinates": [
          [
            [
              79.61333333333334,
              11.6225
            ],
            [
              79.90666666666667,
              11.6225
            ],
            [
              79.90666666666667,
              11.8775
            ],
            [
              79.61333333333334,
              11.8775
            ],
            [
              79.61333333333334,
              11.6225
            ]
          ]
        ]
      }
    },
    {
      "type": "Feature",
      "properties": {
        "district": "Kanchipuram"
      },
      "geometry": {
        "type": "Polygon",
        "coordinates": [
          [
            [
              79.52666666666667,
              12.6975
            ],
            [
              79.87333333333333,
              12.6975
            ],
            [
              79.87333333333333,
              12.9825
            ],
            [
              79.52666666666667,
              12.9825
            ],
            [
              79.52666666666667,
              12.6975
            ]
          ]
        ]
      }
    },
    {
      "type": "Feature",
      "properties": {
        "district": "Karur"
      },
      "geometry": {
        "type": "Polygon",
        "coordinates": [
          [
            [
              77.93333333333334,
              10.832500000000001
            ],
            [
              78.22666666666666,
              10.832500000000001
            ],
            [
              78.22666666666666,
              11.0875
            ],
            [
              77.93333333333334,
              11.0875
            ],
            [
              77.93333333333334,
              10.832500000000001
            ]
          ]
        ]
      }
    },
    {
      "type": "Feature",
      "properties": {
        "district": "Namakkal"
      },
      "geometry": {
        "type": "Polygon",
        "coordinates": [
          [
            [
              77.99,
              11.085
            ],
            [
              78.35000000000001,
              11.085
            ],
            [
              78.35000000000001,
              11.355
            ],
            [
              77.99,
              11.355
            ],
            [
              77.99,
              11.085
            ]
          ]
        ]
      }
    },
    {
      "type": "Feature",
      "properties": {
        "district": "Nagapattinam"
      },
      "geometry": {
        "type": "Polygon",
        "coordinates": [
          [
            [
              79.67333333333333,
              10.635
            ],
            [
              80.00666666666667,
              10.635
            ],
            [
              80.00666666666667,
              10.905
            ],
            [
              79.67333333333333,
              10.905
            ],
            [
              79.67333333333333,
              10.635
            ]
          ]
        ]
      }
    },
    {
      "type": "Feature",
      "properties": {
        "district": "Sivaganga"
      },
      "geometry": {
        "type": "Polygon",
        "coordinates": [
          [
            [
              78.3,
              9.7225
            ],
            [
              78.66000000000001,
              9.7225
            ],
            [
              78.66000000000001,
              9.9775
            ],
            [
              78.3,
              9.9775
            ],
            [
              78.3,
              9.7225
            ]
          ]
        ]
      }
    },
    {
      "type": "Feature",
      "properties": {
        "district": "Virudhunagar"
      },
      "geometry": {
        "type": "Polygon",
        "coordinates": [
          [
            [
              77.78666666666666,
              9.4625
            ],
            [
              78.13333333333333,
              9.4625
            ],
            [
              78.13333333333333,
              9.7175
            ],
            [
              77.78666666666666,
              9.7175
            ],
            [
              77.78666666666666,
              9.4625
            ]
          ]
        ]
      }
    },
    {
      "type": "Feature",
      "properties": {
        "district": "Ramanathapuram"
      },
      "geometry": {
        "type": "Polygon",
        "coordinates": [
          [
            [
              78.71,
              9.2425
            ],
            [
              78.99,
              9.2425
            ],
            [
              78.99,
              9.497499999999999
            ],
            [
              78.71,
              9.497499999999999
            ],
            [
              78.71,
              9.2425
            ]
          ]
        ]
      }
    },
    {
      "type": "Feature",
      "properties": {
        "district": "Pudukkottai"
      },
      "geometry": {
        "type": "Polygon",
        "coordinates": [
          [
            [
              78.67999999999999,
              10.260000000000002
            ],
            [
              78.96,
              10.260000000000002
            ],
            [
              78.96,
              10.5
            ],
            [
              78.67999999999999,
              10.5
            ],
            [
              78.67999999999999,
              10.260000000000002
            ]
          ]
        ]
      }
    },
    {
      "type": "Feature",
      "properties": {
        "district": "Dharmapuri"
      },
      "geometry": {
        "type": "Polygon",
        "coordinates": [
          [
            [
              78.02,
              11.995000000000001
            ],
            [
              78.3,
              11.995000000000001
            ],
            [
              78.3,
              12.265
            ],
            [
              78.02,
              12.265
            ],
            [
              78.02,
              11.995000000000001
            ]
          ]
        ]
      }
    },
    {
      "type": "Feature",
      "properties": {
        "district": "Krishnagiri"
      },
      "geometry": {
        "type": "Polygon",
        "coordinates": [
          [
            [
              78.02999999999999,
              12.3925
            ],
            [
              78.39,
              12.3925
            ],
            [
              78.39,
              12.647499999999999
            ],
            [
              78.02999999999999,
              12.647499999999999
            ],
            [
              78.02999999999999,
              12.3925
            ]
          ]
        ]
      }
    },
    {
      "type": "Feature",
      "properties": {
        "district": "Villupuram"
      },
      "geometry": {
        "type": "Polygon",
        "coordinates": [
          [
            [
              79.33666666666666,
              11.8125
            ],
            [
              79.64333333333333,
              11.8125
            ],
            [
              79.64333333333333,
              12.067499999999999
            ],
            [
              79.33666666666666,
              12.067499999999999
            ],
            [
              79.33666666666666,
              11.8125
            ]
          ]
        ]
      }
    },
    {
      "type": "Feature",
      "properties": {
        "district": "Tiruvannamalai"
      },
      "geometry": {
        "type": "Polygon",
        "coordinates": [
          [
            [
              78.88999999999999,
              12.102500000000001
            ],
            [
              79.25,
              12.102500000000001
            ],
            [
              79.25,
              12.3575
            ],
            [
              78.88999999999999,
              12.3575
            ],
            [
              78.88999999999999,
              12.102500000000001
            ]
          ]
        ]
      }
    },
    {
      "type": "Feature",
      "properties": {
        "district": "Kanyakumari"
      },
      "geometry": {
        "type": "Polygon",
        "coordinates": [
          [
            [
              77.36999999999999,
              7.9475
            ],
            [
              77.73,
              7.9475
            ],
            [
              77.73,
              8.2325
            ],
            [
              77.36999999999999,
              8.2325
            ],
            [
              77.36999999999999,
              7.9475
            ]
          ]
        ]
      }
    },
    {
      "type": "Feature",
      "properties": {
        "district": "Nilgiris"
      },
      "geometry": {
        "type": "Polygon",
        "coordinates": [
          [
            [
              76.52,
              11.280000000000001
            ],
            [
              76.88000000000001,
              11.280000000000001
            ],
            [
              76.88000000000001,
              11.52
            ],
            [
              76.52,
              11.52
            ],
            [
              76.52,
              11.280000000000001
            ]
          ]
        ]
      }
    },
    {
      "type": "Feature",
      "properties": {
        "district": "Ariyalur"
      },
      "geometry": {
        "type": "Polygon",
        "coordinates": [
          [
            [
              78.89999999999999,
              11.012500000000001
            ],
            [
              79.26,
              11.012500000000001
            ],
            [
              79.26,
              11.2675
            ],
            [
              78.89999999999999,
              11.2675
            ],
            [
              78.89999999999999,
              11.012500000000001
            ]
          ]
        ]
      }
    },
    {
      "type": "Feature",
      "properties": {
        "district": "Perambalur"
      },
      "geometry": {
        "type": "Polygon",
        "coordinates": [
          [
            [
              78.69999999999999,
              11.0875
            ],
            [
              79.06,
              11.0875
            ],
            [
              79.06,
              11.3725
            ],
            [
              78.69999999999999,
              11.3725
            ],
            [
              78.69999999999999,
              11.0875
            ]
          ]
        ]
      }
    },
    {
      "type": "Feature",
      "properties": {
        "district": "Theni"
      },
      "geometry": {
        "type": "Polygon",
        "coordinates": [
          [
            [
              77.31333333333333,
              9.8675
            ],
            [
              77.64666666666668,
              9.8675
            ],
            [
              77.64666666666668,
              10.1525
            ],
            [
              77.31333333333333,
              10.1525
            ],
            [
              77.31333333333333,
              9.8675
            ]
          ]
        ]
      }
    }
  ]
}